P/2025 UX109 (Ye),e,3.1815,197.9821,276.1141,3.804128,0.1328377,0.32444361,45.5407,07/23.0/2026,2000,g 13.7,4.0
# From MPC191592
C/2025 V1 (Borisov),h,11/16.5503/2025,112.7031,91.8737,47.5684,1.007762,0.462639,2000,16.3,4.0
# From MPEC 2026-O09
C/2025 V2 (Rankin),h,03/23.0584/2027,37.3050,138.0869,102.7856,1.000106,1.950278,2000,9.0,4.0
# From MPC191592
C/2025 W1 (Sankovich),e,79.8007,95.8907,250.6465,6281,0.0000020,0.99933598,0.0000,02/17.7310/2025,2000,g  9.7,4.0
# From MPC191592
C/2025 W2 (ATLAS),e,94.7090,90.8467,41.0418,26.96130,0.0070403,0.94609380,1.5993,07/23.0/2026,2000,g 17.9,4.0
# From MPC194197
P/2025 W3 (Kresken),e,9.7405,60.0003,311.4190,2.546742,0.2425083,0.18114064,119.4931,07/23.0/2026,2000,g 17.2,4.0
# From MPC194197
P/2025 W4 (PANSTARRS),e,1.2976,237.0788,172.2829,2.579619,0.2378870,0.21161588,69.3582,07/23.0/2026,2000,g 17.5,4.0
# From MPEC 2026-KB8
C/2025 X1 (PANSTARRS),e,36.9537,95.6299,85.6971,33.67323,0.0050440,0.86137931,359.2869,07/23.0/2026,2000,g 10.2,4.0
# From MPEC 2026-O53
C/2025 Y1 (ATLAS),e,14.5564,166.5504,124.2911,9107,0.0000011,0.99971428,0.0000,10/14.0039/2027,2000,g  6.3,4.0
# From MPEC 2026-N12
P/2025 Y2 (PANSTARRS),e,16.5874,177.4771,344.7256,4.017105,0.1224149,0.24148766,27.8921,07/23.0/2026,2000,g 13.3,4.0
# From MPC194197
C/2025 Y3 (PANSTARRS),h,01/13.7127/2026,89.5483,272.9673,219.3886,1.000612,2.227398,2000,17.0,4.0
# From MPEC 2026-O53
C/2026 A2 (Bok),e,82.3058,206.5885,155.9356,825.5938,0.0000415,0.99765280,0.0000,12/22.3523/2026,2000,g 10.7,4.0
# From MPEC 2026-GD5
C/2026 A3 (PANSTARRS),h,09/28.5814/2027,157.4352,307.0051,238.8291,1.006015,4.812873,2000,9.0,4.0
# From MPEC 2026-O53
C/2026 AZ17 (Bok),e,36.2337,149.9743,146.9112,64.93870,0.0018834,0.96192295,359.7679,07/23.0/2026,2000,g 12.2,4.0
# From MPEC 2026-N12
C/2026 B2 (Sun-Gao),e,59.5801,234.6363,47.2983,511.7775,0.0000851,0.99749062,0.0000,01/10.1143/2026,2000,g  9.7,4.0
# From MPEC 2026-L50
C/2026 B3 (PANSTARRS),e,100.8353,346.2549,205.2263,1204,0.0000236,0.99516968,0.0000,05/05.2660/2027,2000,g  7.7,4.0
# From MPEC 2026-O09
C/2026 C1 (Tsuchinshan),e,99.5816,3.6209,310.7194,22110,0.0000003,0.99994788,0.0000,11/06.9245/2028,2000,g  4.4,4.0
# From MPC194198
P/2026 C2 (PANSTARRS),e,7.4013,190.5601,11.0290,3.551995,0.1472297,0.31424155,0.1573,07/23.0/2026,2000,g 14.9,4.0
# From MPEC 2026-L50
A/2026 E1,e,108.1824,188.3167,344.8448,386.3386,0.0001298,0.99248810,0.0000,05/13.5660/2026,2000,g 12.0,2.0
# From MPEC 2026-K60
C/2026 H1 (PANSTARRS),h,06/13.5223/2026,115.5936,178.7278,349.6538,1.000730,6.083964,2000,9.0,4.0
# From MPEC 2026-O53
C/2026 H2 (Leonard),h,03/17.3049/2026,148.6499,5.4587,111.5484,1.001909,4.546457,2000,10.1,4.0
# From MPEC 2026-K33
C/2026 H3 (Bok),h,05/22.9654/2026,142.5671,352.4976,98.4928,1.003310,7.728230,2000,8.9,4.0
# From MPEC 2026-O53
C/2026 J1 (PANSTARRS),e,73.1152,100.3566,129.5210,25.50661,0.0076511,0.90105684,0.1732,07/23.0/2026,2000,g 14.1,4.0
# From MPEC 2026-O53
C/2026 L1 (PANSTARRS),e,67.2629,130.5038,200.5944,771.1076,0.0000460,0.99367227,0.0000,04/11.3880/2027,2000,g  9.2,4.0
# From MPEC 2026-O09
C/2026 L2 (PANSTARRS),e,55.5384,283.6661,359.9946,3409,0.0000050,0.99900309,0.0000,04/09.8048/2026,2000,g 13.3,4.0
# From MPEC 2026-O53
C/2026 M3 (MASTER),h,01/16.3117/2027,93.9169,282.3870,50.1399,1.002514,12.066715,2000,3.9,4.0
# From MPC191592
1P/Halley,e,162.1838,59.3214,112.2214,17.85852,0.0130598,0.96801765,192.8843,07/23.0/2026,2000,g  5.5,3.2
# From MPC191592
2P/Encke,e,11.3479,334.0194,187.2857,2.217764,0.2984222,0.84730583,299.6504,07/23.0/2026,2000,g 11.5,6.0
# From AJ 76, 1135
3D-A/Biela,e,7.2146,276.6847,192.1530,3.552376,0.1472061,0.76706551,88.0088,07/23.0/2026,2000,g 11.0,6.0
# From AJ 76, 1135
3D-B/Biela,e,7.8790,276.2037,192.2721,3.541420,0.1478897,0.76782224,57.6671,07/23.0/2026,2000,g 11.0,6.0
# From MPC191593
4P/Faye,e,7.9983,192.8863,207.1628,3.831205,0.1314320,0.57580390,233.7669,07/23.0/2026,2000,g  8.0,6.0
# From MPC191593
6P/d'Arrest,e,19.5073,138.9583,178.0366,3.497284,0.1506981,0.61254095,266.8928,07/23.0/2026,2000,g  7.5,16.0
# From MPC194198
7P/Pons-Winnecke,e,21.8592,92.6365,174.4064,3.335862,0.1617678,0.66013522,295.4880,07/23.0/2026,2000,g 10.0,6.0
# From MPC191593
8P/Tuttle,e,54.9761,270.1865,207.4808,5.706788,0.0722964,0.82074911,129.3165,07/23.0/2026,2000,g  8.0,8.0
# From MPC191593
9P/Tempel,e,10.4819,66.8464,184.5734,3.304635,0.1640661,0.46544630,266.7154,07/23.0/2026,2000,g  5.5,10.0
# From MPEC 2026-O53
10P/Tempel,e,12.0273,117.7975,195.4678,3.065066,0.1836725,0.53745279,358.1422,07/23.0/2026,2000,g  5.0,10.0
# From MPC191593
11P/Tempel-Swift-LINEAR,e,14.4305,238.8515,168.0708,3.282233,0.1657486,0.57728259,341.7777,07/23.0/2026,2000,g 17.0,4.0
# From MPC191593
12P/Pons-Brooks,e,74.1565,255.8658,199.0320,17.27437,0.0137278,0.95474260,11.2953,07/23.0/2026,2000,g  5.0,6.0
# From MPC191593
13P/Olbers,e,44.6528,85.8403,64.4373,16.95185,0.0141214,0.93066458,10.6306,07/23.0/2026,2000,g  5.0,6.0
# From MPEC 2026-O53
14P/Wolf,e,27.9193,202.0081,159.2066,4.255179,0.1122864,0.35642435,353.4831,07/23.0/2026,2000,g  5.5,12.0
# From MPC191594
15P/Finlay,e,6.7841,13.7314,347.8573,3.512192,0.1497396,0.71580039,275.1151,07/23.0/2026,2000,g 12.0,4.0
# From MPC191594
16P/Brooks,e,3.0099,138.8075,245.3650,3.663330,0.1405692,0.48517122,270.2763,07/23.0/2026,2000,g  7.5,10.0
# From MPC191594
17P/Holmes,e,19.0040,326.5957,24.5691,3.643228,0.1417342,0.42602780,280.9454,07/23.0/2026,2000,g 10.0,6.0
# From QJ 19, 80
18D/Perrine-Mrkos,e,17.664,158.451,238.161,3.87829,0.129046,0.5893655,89.434,07/23.0/2026,2000,g 16.0,4.0
# From MPC191594
19P/Borrelly,e,29.3038,74.2146,352.0185,3.608906,0.1437609,0.63747817,234.5534,07/23.0/2026,2000,g  4.5,10.0
# From MPC191594
21P/Giacobini-Zinner,e,32.0707,195.2742,172.9359,3.489661,0.1511921,0.71115997,73.2751,07/23.0/2026,2000,g  9.0,6.0
# From MPC191594
22P/Kopff,e,5.2816,119.9372,165.9283,3.290642,0.1651137,0.59724093,244.3535,07/23.0/2026,2000,g  3.0,10.4
# From MPEC 2026-O09
24P/Schaumasse,e,11.5018,78.2698,58.4888,4.057640,0.1205851,0.70819479,23.5935,07/23.0/2026,2000,g  6.5,14.0
# From MPC191594
26P/Grigg-Skjellerup,e,22.4513,211.5259,2.1078,3.013622,0.1883956,0.64096006,177.1947,07/23.0/2026,2000,g 12.0,16.0
# From MPC194198
28P/Neujmin,e,14.2863,346.4281,347.4020,6.976205,0.0534903,0.77233493,104.9736,07/23.0/2026,2000,g  8.5,6.0
# From MPEC 2026-O09
29P/Schwassmann-Wachmann,e,9.3551,312.4007,51.4120,6.058056,0.0661004,0.04289139,175.2466,07/23.0/2026,2000,g  4.0,4.0
# From MPC191595
30P/Reinmuth,e,8.0536,117.2292,9.5670,3.737349,0.1364139,0.51441448,96.1264,07/23.0/2026,2000,g  9.5,6.0
# From MPC191595
31P/Schwassmann-Wachmann,e,4.5498,114.1110,18.0803,4.228527,0.1133497,0.19373264,291.3738,07/23.0/2026,2000,g  5.0,8.0
# From MPC191595
32P/ComasSola,e,9.9162,54.5308,54.7683,4.557077,0.1013152,0.55523442,83.4077,07/23.0/2026,2000,g  6.5,8.0
# From MPC191595
33P/Daniel,e,22.2925,66.2830,20.2766,4.091680,0.1190835,0.45170479,73.7332,07/23.0/2026,2000,g 10.0,12.0
# From MPEC 2026-M30
36P/Whipple,e,9.9434,181.8043,201.1766,4.142938,0.1168803,0.26764436,262.2399,07/23.0/2026,2000,g  8.5,6.0
# From MPC191595
37P/Forbes,e,8.9481,314.5394,330.0825,3.461593,0.1530348,0.53228093,99.4691,07/23.0/2026,2000,g 10.5,4.8
# From MPC191596
39P/Oterma,e,1.7206,289.0589,119.8602,6.981034,0.0534348,0.16282876,53.2408,07/23.0/2026,2000,g  7.0,6.0
# From MPEC 2026-O09
40P/Vaisala,e,11.6404,128.8994,52.0734,4.945648,0.0896126,0.63120822,22.6676,07/23.0/2026,2000,g  5.5,12.0
# From MPC191596
41P/Tuttle-Giacobini-Kresak,e,9.2166,140.9772,62.2050,3.087369,0.1816859,0.65999392,255.9528,07/23.0/2026,2000,g 10.0,16.0
# From MPC191596
42P/Neujmin,e,3.9886,150.1552,147.1112,4.879118,0.0914518,0.58403346,17.2928,07/23.0/2026,2000,g 13.0,6.0
# From MPEC 2026-O53
43P/Wolf-Harrington,e,9.3302,243.9709,223.7680,4.326765,0.1095114,0.43544863,38.6080,07/23.0/2026,2000,g  8.0,6.0
# From MPC191596
44P/Reinmuth,e,5.8956,286.4177,57.9452,3.687872,0.1391683,0.42678112,216.2471,07/23.0/2026,2000,g  8.3,6.0
# From MPC191596
45P/Honda-Mrkos-Pajdusakova,e,4.3240,87.6662,327.9672,3.056986,0.1844012,0.81738695,285.3579,07/23.0/2026,2000,g 13.5,8.0
# From MPEC 2026-GD5
47P/Ashbrook-Jackson,e,13.0399,356.8817,357.9152,4.115249,0.1180619,0.31777979,31.6430,07/23.0/2026,2000,g  1.0,11.2
# From MPEC 2026-N12
48P/Johnson,e,12.2010,110.0649,216.8850,3.501724,0.1504115,0.42633955,76.2939,07/23.0/2026,2000,g 10.0,6.0
# From MPEC 2026-N12
49P/Arend-Rigaux,e,19.0597,118.7904,332.9436,3.569460,0.1461505,0.59884262,68.4613,07/23.0/2026,2000,g 11.3,4.4
# From MPC191597
50P/Arend,e,19.1000,355.1442,49.2936,4.085239,0.1193652,0.52942300,95.6882,07/23.0/2026,2000,g  9.5,6.0
# From MPC191597
51P/Harrington,e,5.4263,83.6567,269.1967,3.705317,0.1381866,0.54269831,192.3745,07/23.0/2026,2000,g 10.0,8.0
# From NK 3014
51P-A/Harrington,e,5.4264,83.6585,269.1751,3.706549,0.1381177,0.54289330,191.9215,07/23.0/2026,2000,g 10.0,8.0
# From MPC191597
52P/Harrington-Abell,e,10.2423,336.7373,139.6621,3.861504,0.1298881,0.54120300,227.2743,07/23.0/2026,2000,g 13.5,6.0
# From MPC194199
53P/VanBiesbroeck,e,6.6100,148.8482,134.3688,5.439656,0.0776867,0.55086491,291.2117,07/23.0/2026,2000,g  7.7,4.8
# From MPC191597
54P/deVico-Swift-NEAT,e,6.1154,357.9523,2.6050,3.789711,0.1335965,0.43154063,91.4794,07/23.0/2026,2000,g 10.0,6.0
# From MPC191597
56P/Slaughter-Burnham,e,8.1556,345.8626,44.2347,5.062730,0.0865221,0.50803875,315.4662,07/23.0/2026,2000,g  8.5,6.0
# From MPC191597
57P/duToit-Neujmin-Delporte,e,2.8579,188.6623,115.1787,3.438322,0.1545910,0.50257711,268.8589,07/23.0/2026,2000,g 12.5,6.0
# From MPC191598
59P/Kearns-Kwee,e,9.3575,312.7261,127.7148,4.477242,0.1040371,0.47692435,297.3967,07/23.0/2026,2000,g  7.0,6.0
# From MPC191598
60P/Tsuchinshan,e,3.5796,267.3975,216.9314,3.529889,0.1486149,0.53366681,54.5982,07/23.0/2026,2000,g 11.5,6.0
# From MPC191598
61P/Shajn-Schaldach,e,5.9950,162.9498,221.7131,3.691864,0.1389426,0.42255236,190.2752,07/23.0/2026,2000,g  6.0,10.0
# From MPC191598
